{
  "type": "FeatureCollection",
  "features": [
    {
      "type": "Feature",
      "properties": {
        "norad_id": 34760,
        "name": "COSMOS 2251 DEB",
        "group": "cosmos-2251-debris",
        "lat": -6.829746498264301,
        "lon": 140.52788285016354,
        "alt_km": 899.3857640277856,
        "timestamp": "2025-12-03T15:48:03.461366+00:00",
        "meta_object_name": "COSMOS 2251 DEB",
        "meta_object_id": "1993-036AAE",
        "meta_epoch": "2025-12-02T15:48:08.179200",
        "meta_mean_motion": 14.19524364,
        "meta_eccentricity": 0.00962533,
        "meta_inclination": 74.0627,
        "meta_ra_of_asc_node": 320.3503,
        "meta_arg_of_pericenter": 14.8263,
        "meta_mean_anomaly": 104.0636,
        "meta_ephemeris_type": 0,
        "meta_classification_type": "U",
        "meta_norad_cat_id": 34760,
        "meta_element_set_no": 999,
        "meta_rev_at_epoch": 86545,
        "meta_bstar": 0.00087310198,
        "meta_mean_motion_dot": 1.903e-05,
        "meta_mean_motion_ddot": 0,
        "tle_line1": "1 34760U 93036AAE 25336.65842800  .00001903  00000+0  87310-3 0  9997",
        "tle_line2": "2 34760  74.0627 320.3503 0096253  14.8263 104.0636 14.19524364865450"
      },
      "geometry": {
        "type": "Point",
        "coordinates": [
          140.52788285016354,
          -6.829746498264301
        ]
      }
    },
    {
      "type": "Feature",
      "properties": {
        "norad_id": 34761,
        "name": "COSMOS 2251 DEB",
        "group": "cosmos-2251-debris",
        "lat": -41.48077042740319,
        "lon": -145.80661336075318,
        "alt_km": 796.4408841842587,
        "timestamp": "2025-12-03T15:48:03.461375+00:00",
        "meta_object_name": "COSMOS 2251 DEB",
        "meta_object_id": "1993-036AAF",
        "meta_epoch": "2025-12-03T03:04:46.284672",
        "meta_mean_motion": 14.37995332,
        "meta_eccentricity": 0.0036088,
        "meta_inclination": 74.03,
        "meta_ra_of_asc_node": 20.5037,
        "meta_arg_of_pericenter": 57.7339,
        "meta_mean_anomaly": 302.7303,
        "meta_ephemeris_type": 0,
        "meta_classification_type": "U",
        "meta_norad_cat_id": 34761,
        "meta_element_set_no": 999,
        "meta_rev_at_epoch": 87511,
        "meta_bstar": 0.0007463517,
        "meta_mean_motion_dot": 2.249e-05,
        "meta_mean_motion_ddot": 0,
        "tle_line1": "1 34761U 93036AAF 25337.12831348  .00002249  00000+0  74635-3 0  9996",
        "tle_line2": "2 34761  74.0300  20.5037 0036088  57.7339 302.7303 14.37995332875119"
      },
      "geometry": {
        "type": "Point",
        "coordinates": [
          -145.80661336075318,
          -41.48077042740319
        ]
      }
    },
    {
      "type": "Feature",
      "properties": {
        "norad_id": 34784,
        "name": "COSMOS 2251 DEB",
        "group": "cosmos-2251-debris",
        "lat": 65.7963205385867,
        "lon": 21.385951435779113,
        "alt_km": 679.1286411513274,
        "timestamp": "2025-12-03T15:48:03.461384+00:00",
        "meta_object_name": "COSMOS 2251 DEB",
        "meta_object_id": "1993-036AAM",
        "meta_epoch": "2025-12-03T07:15:15.920640",
        "meta_mean_motion": 14.60708324,
        "meta_eccentricity": 0.00497844,
        "meta_inclination": 74.007,
        "meta_ra_of_asc_node": 342.4202,
        "meta_arg_of_pericenter": 154.5474,
        "meta_mean_anomaly": 205.816,
        "meta_ephemeris_type": 0,
        "meta_classification_type": "U",
        "meta_norad_cat_id": 34784,
        "meta_element_set_no": 999,
        "meta_rev_at_epoch": 88397,
        "meta_bstar": 0.00065608073,
        "meta_mean_motion_dot": 3.224e-05,
        "meta_mean_motion_ddot": 0,
        "tle_line1": "1 34784U 93036AAM 25337.30226760  .00003224  00000+0  65608-3 0  9991",
        "tle_line2": "2 34784  74.0070 342.4202 0049784 154.5474 205.8160 14.60708324883977"
      },
      "geometry": {
        "type": "Point",
        "coordinates": [
          21.385951435779113,
          65.7963205385867
        ]
      }
    },
    {
      "type": "Feature",
      "properties": {
        "norad_id": 34790,
        "name": "COSMOS 2251 DEB",
        "group": "cosmos-2251-debris",
        "lat": -57.793427889383985,
        "lon": -126.93598163736183,
        "alt_km": 751.0206064526637,
        "timestamp": "2025-12-03T15:48:03.461393+00:00",
        "meta_object_name": "COSMOS 2251 DEB",
        "meta_object_id": "1993-036AAT",
        "meta_epoch": "2025-12-02T20:07:24.488832",
        "meta_mean_motion": 14.2457003,
        "meta_eccentricity": 0.01006839,
        "meta_inclination": 74.0549,
        "meta_ra_of_asc_node": 261.5318,
        "meta_arg_of_pericenter": 325.2539,
        "meta_mean_anomaly": 90.5192,
        "meta_ephemeris_type": 0,
        "meta_classification_type": "U",
        "meta_norad_cat_id": 34790,
        "meta_element_set_no": 999,
        "meta_rev_at_epoch": 86432,
        "meta_bstar": 0.0013780227,
        "meta_mean_motion_dot": 3.347e-05,
        "meta_mean_motion_ddot": 0,
        "tle_line1": "1 34790U 93036AAT 25336.83847788  .00003347  00000+0  13780-2 0  9993",
        "tle_line2": "2 34790  74.0549 261.5318 0100683 325.2539  90.5192 14.24570030864322"
      },
      "geometry": {
        "type": "Point",
        "coordinates": [
          -126.93598163736183,
          -57.793427889383985
        ]
      }
    },
    {
      "type": "Feature",
      "properties": {
        "norad_id": 34792,
        "name": "COSMOS 2251 DEB",
        "group": "cosmos-2251-debris",
        "lat": -51.89815771833547,
        "lon": 165.50551756832562,
        "alt_km": 705.1376465199382,
        "timestamp": "2025-12-03T15:48:03.461402+00:00",
        "meta_object_name": "COSMOS 2251 DEB",
        "meta_object_id": "1993-036AAV",
        "meta_epoch": "2025-12-03T00:15:33.197760",
        "meta_mean_motion": 14.55828701,
        "meta_eccentricity": 0.00126114,
        "meta_inclination": 74.018,
        "meta_ra_of_asc_node": 188.1711,
        "meta_arg_of_pericenter": 281.785,
        "meta_mean_anomaly": 230.7468,
        "meta_ephemeris_type": 0,
        "meta_classification_type": "U",
        "meta_norad_cat_id": 34792,
        "meta_element_set_no": 999,
        "meta_rev_at_epoch": 87508,
        "meta_bstar": 0.0011170874,
        "meta_mean_motion_dot": 4.877e-05,
        "meta_mean_motion_ddot": 0,
        "tle_line1": "1 34792U 93036AAV 25337.01080090  .00004877  00000+0  11171-2 0  9992",
        "tle_line2": "2 34792  74.0180 188.1711 0012611 281.7850 230.7468 14.55828701875085"
      },
      "geometry": {
        "type": "Point",
        "coordinates": [
          165.50551756832562,
          -51.89815771833547
        ]
      }
    },
    {
      "type": "Feature",
      "properties": {
        "norad_id": 34793,
        "name": "COSMOS 2251 DEB",
        "group": "cosmos-2251-debris",
        "lat": -66.72788935650118,
        "lon": -134.693843684388,
        "alt_km": 795.7865872746215,
        "timestamp": "2025-12-03T15:48:03.461411+00:00",
        "meta_object_name": "COSMOS 2251 DEB",
        "meta_object_id": "1993-036AAW",
        "meta_epoch": "2025-12-03T05:02:37.810176",
        "meta_mean_motion": 14.38617586,
        "meta_eccentricity": 0.00499618,
        "meta_inclination": 74.0027,
        "meta_ra_of_asc_node": 267.9715,
        "meta_arg_of_pericenter": 64.663,
        "meta_mean_anomaly": 62.5123,
        "meta_ephemeris_type": 0,
        "meta_classification_type": "U",
        "meta_norad_cat_id": 34793,
        "meta_element_set_no": 999,
        "meta_rev_at_epoch": 87193,
        "meta_bstar": 0.00040338215,
        "meta_mean_motion_dot": 1.227e-05,
        "meta_mean_motion_ddot": 0,
        "tle_line1": "1 34793U 93036AAW 25337.21015984  .00001227  00000+0  40338-3 0  9999",
        "tle_line2": "2 34793  74.0027 267.9715 0049961  64.6630  62.5123 14.38617586871935"
      },
      "geometry": {
        "type": "Point",
        "coordinates": [
          -134.693843684388,
          -66.72788935650118
        ]
      }
    },
    {
      "type": "Feature",
      "properties": {
        "norad_id": 34796,
        "name": "COSMOS 2251 DEB",
        "group": "cosmos-2251-debris",
        "lat": 52.30084952747088,
        "lon": -104.88374619484233,
        "alt_km": 709.5502953197611,
        "timestamp": "2025-12-03T15:48:03.461420+00:00",
        "meta_object_name": "COSMOS 2251 DEB",
        "meta_object_id": "1993-036AAZ",
        "meta_epoch": "2025-12-02T10:15:39.153600",
        "meta_mean_motion": 14.48595971,
        "meta_eccentricity": 0.0100085,
        "meta_inclination": 74.031,
        "meta_ra_of_asc_node": 235.676,
        "meta_arg_of_pericenter": 340.022,
        "meta_mean_anomaly": 138.15,
        "meta_ephemeris_type": 0,
        "meta_classification_type": "U",
        "meta_norad_cat_id": 34796,
        "meta_element_set_no": 999,
        "meta_rev_at_epoch": 87878,
        "meta_bstar": 0.00098543833,
        "meta_mean_motion_dot": 3.92e-05,
        "meta_mean_motion_ddot": 0,
        "tle_line1": "1 34796U 93036AAZ 25336.42753650  .00003920  00000+0  98544-3 0  9997",
        "tle_line2": "2 34796  74.0310 235.6760 0100085 340.0220 138.1500 14.48595971878789"
      },
      "geometry": {
        "type": "Point",
        "coordinates": [
          -104.88374619484233,
          52.30084952747088
        ]
      }
    }
  ]
}